NORAD_CAT_ID,OBJECT_NAME,OBJECT_TYPE,EPOCH,MEAN_MOTION,ECCENTRICITY,INCLINATION,RA_OF_ASC_NODE,ARG_OF_PERICENTER,MEAN_ANOMALY,BSTAR,MEAN_MOTION_DOT,MEAN_MOTION_DDOT,TLE_LINE0,TLE_LINE1,TLE_LINE2,SEMIMAJOR_AXIS,PERIOD,APOGEE,PERIGEE,DECAYED
56478.0,STARLINK-6041,PAYLOAD,2024-07-31 05:33:56,14.98341701,0.0002872,70.0002,163.1225,270.592,89.491,0.00011439,1.273e-05,0.0,0 STARLINK-6041,1 56478U 23064AG  24213.23189955  .00001273  00000-0  11439-3 0  9993,2 56478  70.0002 163.1225 0002872 270.5920  89.4910 14.98341701 68255,6950.157,96.106,574.018,570.026,0.0
56478.0,STARLINK-6041,PAYLOAD,2024-07-31 13:34:36,14.98339631,0.0003321,69.9999,162.2803,273.7089,86.369,-4.0977e-05,-5.82e-06,0.0,0 STARLINK-6041,1 56478U 23064AG  24213.56570176 -.00000582  00000-0 -40977-4 0  9992,2 56478  69.9999 162.2803 0003321 273.7089  86.3690 14.98339631 67945,6950.163,96.106,574.336,569.72,0.0
56478.0,STARLINK-6041,PAYLOAD,2024-07-31 21:35:17,14.98321932,0.0002801,70.0024,161.4438,268.9601,91.1237,3.4178e-05,3.15e-06,0.0,0 STARLINK-6041,1 56478U 23064AG  24213.89951307  .00000315  00000-0  34178-4 0  9995,2 56478  70.0024 161.4438 0002801 268.9601  91.1237 14.98321932 68352,6950.218,96.108,574.03,570.136,0.0
56478.0,STARLINK-6041,PAYLOAD,2024-07-31 23:11:26,14.98324517,0.0002561,70.0,161.2712,273.4591,86.6276,-7.1027e-05,-9.4e-06,0.0,0 STARLINK-6041,1 56478U 23064AG  24213.96627515 -.00000940  00000-0 -71027-4 0  9994,2 56478  70.0000 161.2712 0002561 273.4591  86.6276 14.98324517 68007,6950.21,96.107,573.855,570.295,0.0
56478.0,STARLINK-6041,PAYLOAD,2024-08-01 03:59:51,14.983165,0.0002752,70.0004,160.7675,268.6237,91.4607,-0.00014494,-1.821e-05,0.0,0 STARLINK-6041,1 56478U 23064AG  24214.16656267 -.00001821  00000-0 -14494-3 0  9996,2 56478  70.0004 160.7675 0002752 268.6237  91.4607 14.98316500 68395,6950.235,96.108,574.012,570.187,0.0
56478.0,STARLINK-6041,PAYLOAD,2024-08-01 13:36:38,14.98329855,0.0002929,70.0,159.7567,271.1697,88.9127,-4.5554e-05,-6.36e-06,0.0,0 STARLINK-6041,1 56478U 23064AG  24214.56711271 -.00000636  00000-0 -45554-4 0  9992,2 56478  70.0000 159.7567 0002929 271.1697  88.9127 14.98329855 68096,6950.193,96.107,574.094,570.023,0.0
56478.0,STARLINK-6041,PAYLOAD,2024-08-01 21:37:17,14.98341918,0.0002885,69.9999,158.9153,268.7871,91.2957,3.6967e-05,3.48e-06,0.0,0 STARLINK-6041,1 56478U 23064AG  24214.90090202  .00000348  00000-0  36967-4 0  9990,2 56478  69.9999 158.9153 0002885 268.7871  91.2957 14.98341918 68507,6950.156,96.106,574.026,570.016,0.0
56478.0,STARLINK-6041,PAYLOAD,2024-08-01 23:13:25,14.98342403,0.0002923,70.0,158.747,272.7027,87.3798,3.6506e-05,3.43e-06,0.0,0 STARLINK-6041,1 56478U 23064AG  24214.96766154  .00000343  00000-0  36506-4 0  9996,2 56478  70.0000 158.7470 0002923 272.7027  87.3798 14.98342403 68154,6950.155,96.106,574.051,569.988,0.0
56478.0,STARLINK-6041,PAYLOAD,2024-08-02 13:38:38,14.98337948,0.0002614,70.0006,157.2314,273.752,86.334,-6.9962e-05,-9.28e-06,0.0,0 STARLINK-6041,1 56478U 23064AG  24215.56850359 -.00000928  00000-0 -69962-4 0  9997,2 56478  70.0006 157.2314 0002614 273.7520  86.3340 14.98337948 68247,6950.168,96.106,573.85,570.217,0.0
56478.0,STARLINK-6041,PAYLOAD,2024-08-02 21:39:19,14.98320801,0.0003096,70.0,156.3879,270.1943,89.8861,0.00017458,1.99e-05,0.0,0 STARLINK-6041,1 56478U 23064AG  24215.90230615  .00001990  00000-0  17458-3 0  9992,2 56478  70.0000 156.3879 0003096 270.1943  89.8861 14.98320801 68653,6950.221,96.108,574.238,569.935,0.0
56478.0,STARLINK-6041,PAYLOAD,2024-08-03 05:39:59,14.98328441,0.0002895,70.0,155.5486,267.2997,92.783,0.00016418,1.866e-05,0.0,0 STARLINK-6041,1 56478U 23064AG  24216.23610289  .00001866  00000-0  16418-3 0  9995,2 56478  70.0000 155.5486 0002895 267.2997  92.7830 14.98328441 68703,6950.198,96.107,574.075,570.051,0.0
56478.0,STARLINK-6041,PAYLOAD,2024-08-03 13:40:39,14.98326946,0.0003081,69.9995,154.7059,268.2041,91.8765,5.7057e-05,5.88e-06,0.0,0 STARLINK-6041,1 56478U 23064AG  24216.56990600  .00000588  00000-0  57057-4 0  9994,2 56478  69.9995 154.7059 0003081 268.2041  91.8765 14.98326946 68399,6950.202,96.107,574.209,569.926,0.0
56478.0,STARLINK-6041,PAYLOAD,2024-08-03 21:41:20,14.98327964,0.0002939,69.9998,153.864,268.1342,91.948,-0.00012266,-1.556e-05,0.0,0 STARLINK-6041,1 56478U 23064AG  24216.90371084 -.00001556  00000-0 -12266-3 0  9991,2 56478  69.9998 153.8640 0002939 268.1342  91.9480 14.98327964 68444,6950.199,96.107,574.107,570.022,0.0
56478.0,STARLINK-6041,PAYLOAD,2024-08-04 05:42:00,14.98334621,0.0002814,69.9999,153.0233,268.038,92.0456,-0.00010128,-1.301e-05,0.0,0 STARLINK-6041,1 56478U 23064AG  24217.23750598 -.00001301  00000-0 -10128-3 0  9992,2 56478  69.9999 153.0233 0002814 268.0380  92.0456 14.98334621 68856,6950.179,96.107,573.999,570.088,0.0
56478.0,STARLINK-6041,PAYLOAD,2024-08-04 13:42:41,14.98325729,0.0002518,70.0001,152.1815,271.7394,88.3476,4.3686e-05,4.28e-06,0.0,0 STARLINK-6041,1 56478U 23064AG  24217.57130868  .00000428  00000-0  43686-4 0  9994,2 56478  70.0001 152.1815 0002518 271.7394  88.3476 14.98325729 68541,6950.206,96.107,573.821,570.321,0.0
56478.0,STARLINK-6041,PAYLOAD,2024-08-04 21:43:20,14.98330855,0.0002899,69.9999,151.3398,266.8614,93.2213,7.4518e-05,7.96e-06,0.0,0 STARLINK-6041,1 56478U 23064AG  24217.90510238  .00000796  00000-0  74518-4 0  9990,2 56478  69.9999 151.3398 0002899 266.8614  93.2213 14.98330855 68598,6950.19,96.107,574.07,570.04,0.0
56478.0,STARLINK-6041,PAYLOAD,2024-08-05 04:07:52,14.98340527,0.0002878,69.9998,150.6672,267.1108,92.9721,0.00010607,1.173e-05,0.0,0 STARLINK-6041,1 56478U 23064AG  24218.17213487  .00001173  00000-0  10607-3 0  9994,2 56478  69.9998 150.6672 0002878 267.1108  92.9721 14.98340527 68994,6950.16,96.106,574.026,570.025,0.0
56478.0,STARLINK-6041,PAYLOAD,2024-08-05 21:45:23,14.98312108,0.0002883,69.9998,148.8153,273.2458,86.8371,-7.8349e-05,-1.027e-05,0.0,0 STARLINK-6041,1 56478U 23064AG  24218.90652045 -.00001027  00000-0 -78349-4 0  9990,2 56478  69.9998 148.8153 0002883 273.2458  86.8371 14.98312108 69100,6950.248,96.108,574.117,570.109,0.0
56478.0,STARLINK-6041,PAYLOAD,2024-08-06 12:10:35,14.98325969,0.0003005,69.9997,147.3011,272.449,87.6325,1.5111e-05,8.7e-07,0.0,0 STARLINK-6041,1 56478U 23064AG  24219.50735360  .00000087  00000-0  15111-4 0  9990,2 56478  69.9997 147.3011 0003005 272.4490  87.6325 14.98325969 69196,6950.205,96.107,574.159,569.982,0.0
56478.0,STARLINK-6041,PAYLOAD,2024-08-06 20:11:15,14.98335178,0.0003069,69.9994,146.4598,271.7067,88.3741,3.327e-05,3.04e-06,0.0,0 STARLINK-6041,1 56478U 23064AG  24219.84114767  .00000304  00000-0  33270-4 0  9997,2 56478  69.9994 146.4598 0003069 271.7067  88.3741 14.98335178 69244,6950.177,96.107,574.175,569.909,0.0
56478.0,STARLINK-6041,PAYLOAD,2024-08-06 21:47:22,14.98339389,0.0002925,69.9997,146.2915,267.5719,92.5105,7.5586e-05,8.09e-06,0.0,0 STARLINK-6041,1 56478U 23064AG  24219.90790366  .00000809  00000-0  75586-4 0  9995,2 56478  69.9997 146.2915 0002925 267.5719  92.5105 14.98339389 68894,6950.164,96.106,574.062,569.996,0.0
56478.0,STARLINK-6041,PAYLOAD,2024-08-07 04:11:54,14.98348029,0.0002946,69.9997,145.6182,272.5388,87.5433,0.00012818,1.437e-05,0.0,0 STARLINK-6041,1 56478U 23064AG  24220.17493572  .00001437  00000-0  12818-3 0  9991,2 56478  69.9997 145.6182 0002946 272.5388  87.5433 14.98348029 69298,6950.137,96.106,574.05,569.955,0.0
56478.0,STARLINK-6041,PAYLOAD,2024-08-07 20:13:15,14.98326194,0.0002415,70.001,143.9359,269.93,90.1582,0.00020992,2.412e-05,0.0,0 STARLINK-6041,1 56478U 23064AG  24220.84254616  .00002412  00000-0  20992-3 0  9995,2 56478  70.0010 143.9359 0002415 269.9300  90.1582 14.98326194 69394,6950.205,96.107,573.748,570.391,0.0
56478.0,STARLINK-6041,PAYLOAD,2024-08-08 05:50:04,14.98329241,0.0002275,70.0013,142.9257,260.6388,99.4514,0.00025533,2.955e-05,0.0,0 STARLINK-6041,1 56478U 23064AG  24221.24310369  .00002955  00000-0  25533-3 0  9996,2 56478  70.0013 142.9257 0002275 260.6388  99.4514 14.98329241 69091,6950.195,96.107,573.641,570.479,0.0
56478.0,STARLINK-6041,PAYLOAD,2024-08-08 21:51:26,14.9825237,0.0002921,70.0023,141.2441,244.8769,115.2087,0.0013598,0.00016137,0.0,0 STARLINK-6041,1 56478U 23064AG  24221.91072605  .00016137  00000-0  13598-2 0  9992,2 56478  70.0023 141.2441 0002921 244.8769 115.2087 14.98252370 69555,6950.433,96.112,574.328,570.268,0.0
56478.0,STARLINK-6041,PAYLOAD,2024-08-09 04:15:57,14.98338832,0.000265,70.0006,140.5691,270.8469,89.2386,-5.3803e-05,-7.35e-06,0.0,0 STARLINK-6041,1 56478U 23064AG  24222.17774346 -.00000735  00000-0 -53803-4 0  9996,2 56478  70.0006 140.5691 0002650 270.8469  89.2386 14.98338832 69594,6950.166,96.106,573.872,570.189,0.0
56478.0,STARLINK-6041,PAYLOAD,2024-08-09 12:16:37,14.98333386,0.0002543,70.0021,139.726,263.8505,96.2365,-6.835e-05,-9.08e-06,0.0,0 STARLINK-6041,1 56478U 23064AG  24222.51154537 -.00000908  00000-0 -68350-4 0  9993,2 56478  70.0021 139.7260 0002543 263.8505  96.2365 14.98333386 69287,6950.182,96.107,573.815,570.28,0.0
56478.0,STARLINK-6041,PAYLOAD,2024-08-09 20:17:17,14.98331215,0.0002729,70.0013,138.8847,268.428,91.6566,-4.0635e-05,-5.78e-06,0.0,0 STARLINK-6041,1 56478U 23064AG  24222.84534562 -.00000578  00000-0 -40635-4 0  9998,2 56478  70.0013 138.8847 0002729 268.4280  91.6566 14.98331215 69692,6950.189,96.107,573.951,570.157,0.0
56478.0,STARLINK-6041,PAYLOAD,2024-08-09 21:53:25,14.98332071,0.0002752,70.0009,138.7164,268.3026,91.7818,-4.0597e-05,-5.77e-06,0.0,0 STARLINK-6041,1 56478U 23064AG  24222.91210496 -.00000577  00000-0 -40597-4 0  9999,2 56478  70.0009 138.7164 0002752 268.3026  91.7818 14.98332071 69345,6950.186,96.107,573.964,570.139,0.0
56478.0,STARLINK-6041,PAYLOAD,2024-08-10 04:17:57,14.98338745,0.0002636,70.0012,138.0437,269.1989,90.8868,4.5504e-05,4.5e-06,0.0,0 STARLINK-6041,1 56478U 23064AG  24223.17913776  .00000450  00000-0  45504-4 0  9990,2 56478  70.0012 138.0437 0002636 269.1989  90.8868 14.98338745 69746,6950.166,96.106,573.863,570.199,0.0
